OBJECT_NAME,OBJECT_ID,EPOCH,MEAN_MOTION,ECCENTRICITY,INCLINATION,RA_OF_ASC_NODE,ARG_OF_PERICENTER,MEAN_ANOMALY,EPHEMERIS_TYPE,CLASSIFICATION_TYPE,NORAD_CAT_ID,ELEMENT_SET_NO,REV_AT_EPOCH,BSTAR,MEAN_MOTION_DOT,MEAN_MOTION_DDOT
KINEIS-1A,2024-114F,2026-07-03T15:02:02.166144,14.80667352,.00057035,97.8915,207.8815,89.6509,270.5357,0,U,60084,999,10982,.14011621E-3,.1025E-4,0
ASTRA 1P (SES-24),2024-115A,2026-07-02T17:48:31.220928,1.00270842,.00004457,0.0604,342.3847,177.5391,47.2003,0,U,60086,999,735,0,.131E-5,0
CATCH-1,2024-116A,2026-07-03T14:18:24.705792,14.84956205,.0004076,28.9963,7.1096,232.4577,127.5647,0,U,60088,999,11010,.2642473E-3,.2429E-4,0
SVOM,2024-116B,2026-07-03T17:05:31.250400,14.83578772,.00051372,28.9969,13.0543,205.9523,154.0813,0,U,60089,999,11005,.20327086E-3,.1839E-4,0
STARLINK-31441,2024-117A,2026-07-03T10:00:08.000064,15.33543996,.00011393,53.1582,219.4554,82.4605,26.0168,0,U,60091,999,589,.25100108E-3,.789E-4,0
STARLINK-32044,2024-117B,2026-07-03T10:00:08.000064,15.34376378,.00013324,53.1593,219.1417,81.9992,185.3034,0,U,60092,999,584,.4446921E-3,.14667E-3,0
STARLINK-31239,2024-117C,2026-07-02T19:31:48.393120,15.34384485,.00010755,53.1606,222.3057,97.4335,262.6790,0,U,60093,999,11451,-.1066272E-4,-.736E-5,0
STARLINK-32007,2024-117D,2026-07-02T20:08:01.922496,15.34385212,.00012763,53.1600,221.7528,84.4250,275.6898,0,U,60094,999,11452,-.7455386E-5,-.628E-5,0
STARLINK-32028,2024-117E,2026-07-02T09:38:43.412640,15.34397622,.0001095,53.1608,224.0020,88.8703,271.2425,0,U,60095,999,11445,.12119E-3,.372E-4,0
STARLINK-32016,2024-117F,2026-07-02T19:50:00.678336,15.34114941,.00013719,53.1612,222.3838,60.9635,299.1505,0,U,60096,999,11451,.1491061E-2,.49882E-3,0
STARLINK-32003,2024-117G,2026-07-02T13:09:24.925824,15.30193956,.0001394,53.1605,223.4877,71.6018,288.5134,0,U,60097,999,11447,.32338E-5,-.263E-5,0
STARLINK-32026,2024-117H,2026-07-02T19:10:35.478336,15.34390010,.00010748,53.1606,222.2115,89.7760,270.3366,0,U,60098,999,11451,-.19044607E-4,-.1019E-4,0
STARLINK-31732,2024-117J,2026-07-02T09:27:52.470720,15.30198144,.0001015,53.1596,223.9511,86.2784,273.8333,0,U,60099,999,11445,.1272E-4,.18E-6,0
STARLINK-31996,2024-117K,2026-07-02T20:14:04.518240,15.34409575,.00006639,53.1592,221.7760,68.8835,291.2239,0,U,60100,999,11452,-.59330678E-4,-.238E-4,0
STARLINK-31999,2024-117L,2026-07-02T19:40:53.345568,15.34395733,.00015252,53.1612,222.3426,126.8260,233.2883,0,U,60101,999,11451,-.73695742E-4,-.2865E-4,0
STARLINK-31954,2024-117M,2026-07-03T10:00:08.000064,15.33541089,.00011599,53.1595,219.6830,83.3097,269.7187,0,U,60102,999,583,.24462784E-3,.7679E-4,0
STARLINK-32013,2024-117N,2026-07-03T10:00:08.000064,15.33255932,.00009118,53.1592,219.7118,51.7674,286.2206,0,U,60103,999,588,.31588599E-1,.1129774E-1,0
STARLINK-32009,2024-117P,2026-07-02T13:07:31.041120,15.34400428,.0001133,53.1594,223.4562,79.8015,280.3116,0,U,60104,999,11447,.75276E-4,.2168E-4,0
STARLINK-32018,2024-117Q,2026-07-02T12:37:14.100960,15.34347547,.0001888,53.1600,223.3507,95.3948,264.7270,0,U,60105,999,11447,.40935E-3,.13456E-3,0
STARLINK-32045,2024-117R,2026-07-02T12:28:08.764032,15.34425853,.0001253,53.1573,223.3126,85.7828,274.3318,0,U,60106,999,11447,.41735E-3,.13762E-3,0
STARLINK-32035,2024-117S,2026-07-03T10:00:08.000064,15.34382232,.00008995,53.1574,219.3923,77.2112,62.1618,0,U,60107,999,589,.29767225E-3,.9689E-4,0
STARLINK-32042,2024-117T,2026-07-02T19:21:04.218912,15.30192190,.00010361,53.1592,222.2529,87.9552,272.1567,0,U,60108,999,11451,-.128076E-4,-.738E-5,0
STARLINK-32040,2024-117U,2026-07-02T12:39:00.766944,15.30203469,.0001099,53.1596,223.3603,81.6153,278.4972,0,U,60109,999,11447,.32693E-4,.609E-5,0
STARLINK-32001,2024-117V,2026-07-02T20:11:05.289216,15.34372042,.00013238,53.1603,221.7596,81.8925,278.2228,0,U,60110,999,11452,-.854197E-4,-.3258E-4,0
STARLINK-32015,2024-117W,2026-07-01T14:44:14.918784,15.30959352,.00019045,53.1589,227.6090,29.1785,330.9322,0,U,60111,999,11433,.32384757E-2,.99155E-3,0
STARLINK-32024,2024-117X,2026-07-02T19:16:31.014336,15.30196146,.00012076,53.1592,222.2325,76.6361,283.4774,0,U,60112,999,11451,.34147956E-4,.652E-5,0
STARLINK-11201 [DTC],2024-118A,2026-07-02T19:59:49.611840,15.69710937,.0000932,53.1593,13.9599,94.4528,265.6596,0,U,60113,999,11607,.4455864E-5,-.48E-6,0
STARLINK-11198 [DTC],2024-118B,2026-07-02T19:52:46.143840,15.69708038,.00008789,53.1592,13.9284,90.4366,269.6752,0,U,60114,999,11607,.1231405E-5,-.439E-5,0
STARLINK-11112 [DTC],2024-118C,2026-07-02T19:45:42.569568,15.69696060,.00011602,53.1597,13.8968,74.9596,285.1550,0,U,60115,999,11607,.16865005E-4,.1454E-4,0
STARLINK-11210 [DTC],2024-118D,2026-07-02T19:38:38.867424,15.69706855,.00008853,53.1616,13.8692,96.0503,264.0615,0,U,60116,999,11607,.985998E-6,-.469E-5,0
STARLINK-11203 [DTC],2024-118E,2026-07-02T19:31:35.037408,15.69703551,.00010504,53.1601,13.8308,92.3410,267.7728,0,U,60117,999,11607,-.3373447E-5,-.997E-5,0
STARLINK-11177 [DTC],2024-118F,2026-07-02T05:39:21.816288,15.69693653,.0000552,53.1584,16.6227,101.2894,258.8186,0,U,60118,999,11598,.5053E-6,-.526E-5,0
STARLINK-11127 [DTC],2024-118G,2026-07-02T19:17:27.309120,15.69703789,.0000841,53.1593,13.7652,89.6557,270.4558,0,U,60119,999,11607,-.2258354E-5,-.862E-5,0
STARLINK-11164 [DTC],2024-118H,2026-07-02T13:03:39.161664,15.69694235,.0001295,53.1574,14.9855,117.6993,242.4156,0,U,60120,999,11603,-.22273E-4,-.3284E-4,0
STARLINK-11119 [DTC],2024-118J,2026-07-02T12:42:27.961056,15.69696505,.0000937,53.1580,14.8891,325.2702,34.8254,0,U,60121,999,11603,-.11063E-4,-.1927E-4,0
STARLINK-11157 [DTC],2024-118K,2026-07-02T12:49:32.680128,15.69690550,.0001373,53.1593,14.9221,80.0208,280.0965,0,U,60122,999,11603,-.18378E-4,-.2813E-4,0
STARLINK-11162 [DTC],2024-118L,2026-07-01T19:46:51.732768,15.69714969,.00009076,53.1594,18.3084,77.9918,282.1202,0,U,60123,999,11592,.8936028E-5,.495E-5,0
STARLINK-11161 [DTC],2024-118M,2026-07-02T12:28:29.652960,15.69690977,.0001013,53.1596,15.5590,69.9005,290.2122,0,U,60124,999,11602,-.16661E-4,-.2604E-4,0
STARLINK-11160 [DTC],2024-118N,2026-07-02T19:03:18.474912,15.69722010,.00003121,53.1614,13.6981,182.9994,177.1023,0,U,60125,999,11607,-.73100378E-4,-.9437E-4,0
STARLINK-31846,2024-118P,2026-07-02T18:48:06.472800,15.31697667,.00011656,53.1600,211.7028,91.5914,268.5221,0,U,60126,999,11332,-.13336489E-4,-.779E-5,0
STARLINK-31840,2024-118Q,2026-07-02T18:41:24.221184,15.31700432,.00013524,53.1596,211.6763,89.1492,270.9664,0,U,60127,999,11332,.20240767E-4,.263E-5,0
STARLINK-31813,2024-118R,2026-07-02T11:51:55.175904,15.31710465,.0001073,53.1582,212.7482,79.7722,280.3401,0,U,60128,999,11328,.4049E-4,.892E-5,0
STARLINK-31845,2024-118S,2026-07-02T11:49:50.124000,15.30168427,.000136,53.1594,211.3067,81.6173,278.4982,0,U,60129,999,11330,.10748E-3,.2822E-4,0
STARLINK-31838,2024-118T,2026-07-02T08:57:27.051264,15.31708355,.0001123,53.1589,213.4105,83.1848,276.9282,0,U,60130,999,11326,-.3696E-5,-.48E-5,0
STARLINK-31785,2024-118U,2026-07-02T08:37:17.088384,15.31706029,.0001025,53.1596,213.3238,80.2995,279.8122,0,U,60131,999,11326,-.16611E-5,-.417E-5,0
STARLINK-31792,2024-118V,2026-07-02T19:15:45.507456,15.30185015,.00006242,53.1598,209.6437,180.7358,179.3642,0,U,60132,999,11335,-.26898753E-4,-.1155E-4,0
GOES 19,2024-119A,2026-07-02T13:37:28.098912,1.00271173,.0000538,0.0126,77.9489,80.1000,251.7332,0,U,60133,999,711,0,-.238E-5,0
STARLINK-32043,2024-120A,2026-07-02T14:42:49.798368,15.34383251,.0001496,53.1603,145.2577,101.2323,258.8848,0,U,60135,999,11398,.11276E-3,.3433E-4,0
STARLINK-32112,2024-120B,2026-07-02T21:01:02.646048,15.34390012,.00014128,53.1600,144.0569,78.3926,281.7235,0,U,60136,999,11410,-.82772118E-4,-.3171E-4,0
STARLINK-32050,2024-120C,2026-07-02T14:27:40.397760,15.34382260,.0001375,53.1600,145.1937,94.5035,265.6125,0,U,60137,999,11398,-.34967E-4,-.1557E-4,0
STARLINK-32025,2024-120D,2026-07-02T02:51:42.034464,15.34394330,.00013303,53.1599,147.1485,84.0735,276.0420,0,U,60138,999,11391,.37344464E-4,.885E-5,0
STARLINK-31694,2024-120F,2026-07-02T14:54:56.570112,15.34379291,.00012476,53.1596,145.3097,96.4866,263.6279,0,U,60140,999,11406,-.55091663E-4,-.2236E-4,0
STARLINK-32036,2024-120G,2026-07-02T15:04:01.145856,15.34392662,.00013427,53.1592,145.3496,76.9456,283.1696,0,U,60141,999,11406,-.51607263E-4,-.2119E-4,0
STARLINK-32031,2024-120H,2026-07-02T10:37:42.093120,15.34362326,.0000982,53.1604,145.6187,85.4506,274.6609,0,U,60142,999,11404,-.94844E-4,-.3575E-4,0
STARLINK-32027,2024-120J,2026-07-02T04:28:32.172672,15.34396283,.00014093,53.1604,146.8186,86.6629,273.4534,0,U,60143,999,11400,.53671683E-4,.1437E-4,0
STARLINK-32033,2024-120K,2026-07-02T15:10:05.242368,15.34395406,.0001332,53.1613,145.3788,79.0493,281.0659,0,U,60144,999,11398,.20992059E-4,.333E-5,0
STARLINK-32029,2024-120L,2026-07-02T14:06:27.736992,15.34387418,.0001338,53.1602,145.0982,88.3434,271.7722,0,U,60145,999,11398,-.60951E-5,-.582E-5,0
STARLINK-32127,2024-120M,2026-07-02T04:37:36.886656,15.34398018,.00012551,53.1596,146.8990,91.3391,268.7755,0,U,60146,999,11392,.3339771E-4,.752E-5,0
STARLINK-32019,2024-120N,2026-07-02T14:03:25.479648,15.34395672,.0001415,53.1585,145.0865,85.3652,274.7512,0,U,60147,999,11398,.51898E-4,.1377E-4,0
STARLINK-32021,2024-120P,2026-07-02T19:54:38.945088,15.31699193,.00015053,53.1596,134.5212,79.4887,280.6284,0,U,60148,999,11423,-.92607016E-4,-.3238E-4,0
STARLINK-32022,2024-120Q,2026-07-02T05:10:57.037152,15.34389034,.000125,53.1592,147.0398,92.3177,267.7968,0,U,60149,999,11400,.86338E-5,-.85E-6,0
STARLINK-32014,2024-120R,2026-07-02T15:00:59.746464,15.34385773,.00014053,53.1613,145.3327,85.3291,274.7872,0,U,60150,999,11398,-.8094909E-5,-.65E-5,0
STARLINK-32004,2024-120S,2026-07-02T03:55:20.167968,15.34386630,.0001351,53.1609,147.4252,89.7666,270.3492,0,U,60151,999,11399,-.13654519E-4,-.837E-5,0
STARLINK-32147,2024-120T,2026-07-02T14:36:45.897120,15.34382994,.0001315,53.1593,145.2302,88.6782,271.4371,0,U,60152,999,11398,-.25086E-4,-.1223E-4,0
